[{"OBJECT_NAME":"STARLINK-5916","OBJECT_ID":"2023-042C","EPOCH":"2026-03-09T07:13:47.626752","MEAN_MOTION":15.02535484,"ECCENTRICITY":0.00012199,"INCLINATION":43.004,"RA_OF_ASC_NODE":58.0864,"ARG_OF_PERICENTER":268.8318,"MEAN_ANOMALY":91.2385,"EPHEMERIS_TYPE":0,"CLASSIFICATION_TYPE":"U","NORAD_CAT_ID":55988,"ELEMENT_SET_NO":999,"REV_AT_EPOCH":16285,"BSTAR":3.2637134e-5,"MEAN_MOTION_DOT":2.37e-6,"MEAN_MOTION_DDOT":0},{"OBJECT_NAME":"CZ-4 DEB","OBJECT_ID":"2007-042E","EPOCH":"2026-03-09T05:05:13.801056","MEAN_MOTION":14.89671222,"ECCENTRICITY":0.00640153,"INCLINATION":98.6325,"RA_OF_ASC_NODE":167.9775,"ARG_OF_PERICENTER":42.5531,"MEAN_ANOMALY":318.0619,"EPHEMERIS_TYPE":0,"CLASSIFICATION_TYPE":"U","NORAD_CAT_ID":35397,"ELEMENT_SET_NO":999,"REV_AT_EPOCH":97028,"BSTAR":0.0012361728,"MEAN_MOTION_DOT":0.00012236,"MEAN_MOTION_DDOT":0}]
